[{"OBJECT_NAME":"STARLINK-6146","OBJECT_ID":"2023-090Z","EPOCH":"2026-03-09T22:30:45.952704","MEAN_MOTION":15.02534437,"ECCENTRICITY":0.00012028,"INCLINATION":43.0027,"RA_OF_ASC_NODE":273.0488,"ARG_OF_PERICENTER":269.6701,"MEAN_ANOMALY":90.4003,"EPHEMERIS_TYPE":0,"CLASSIFICATION_TYPE":"U","NORAD_CAT_ID":57124,"ELEMENT_SET_NO":999,"REV_AT_EPOCH":15045,"BSTAR":8.0813605e-5,"MEAN_MOTION_DOT":8.88e-6,"MEAN_MOTION_DDOT":0},{"OBJECT_NAME":"FENGYUN 1C DEB","OBJECT_ID":"1999-025XG","EPOCH":"2026-03-09T14:05:00.255264","MEAN_MOTION":14.623867,"ECCENTRICITY":0.0186024,"INCLINATION":98.2742,"RA_OF_ASC_NODE":340.7736,"ARG_OF_PERICENTER":80.2516,"MEAN_ANOMALY":39.7352,"EPHEMERIS_TYPE":0,"CLASSIFICATION_TYPE":"U","NORAD_CAT_ID":30247,"ELEMENT_SET_NO":999,"REV_AT_EPOCH":98550,"BSTAR":0.0027146,"MEAN_MOTION_DOT":0.00017593,"MEAN_MOTION_DDOT":0}]
